*******************************************************************************
 Revised: July 31, 2013             Moon / (Earth)                          301
 
 GEOPHYSICAL DATA (updated 2018-Aug-15):
  Vol. mean radius, km  = 1737.53+-0.03    Mass, x10^22 kg       =    7.349
  Radius (gravity), km  = 1738.0           Surface emissivity    =    0.92
  Radius (IAU), km      = 1737.4           GM, km^3/s^2          = 4902.800066
  Density, g/cm^3       =    3.3437        GM 1-sigma, km^3/s^2  =  +-0.0001  
  V(1,0)                =   +0.21          Surface accel., m/s^2 =    1.62
  Earth/Moon mass ratio = 81.3005690769    Farside crust. thick. = ~80 - 90 km
  Mean crustal density  = 2.97+-.07 g/cm^3 Nearside crust. thick.= 58+-8 km 
  Heat flow, Apollo 15  = 3.1+-.6 mW/m^2   Mean angular diameter = 31'05.2"
  Heat flow, Apollo 17  = 2.2+-.5 mW/m^2   Sid. rot. rate, rad/s = 0.0000026617
  Geometric Albedo      = 0.12             Mean solar day        = 29.5306 d
  Obliquity to orbit    = 6.67 deg         Orbit period          = 27.321582 d
  Semi-major axis, a    = 384400 km        Eccentricity          = 0.05490
  Mean motion, rad/s    = 2.6616995x10^-6  Inclination           = 5.145 deg
  Apsidal period        = 3231.50 d        Nodal period          = 6798.38 d
                                 Perihelion  Aphelion    Mean
  Solar Constant (W/m^2)         1414+-7     1323+-7     1368+-7
  Maximum Planetary IR (W/m^2)   1314        1226        1268
  Minimum Planetary IR (W/m^2)      5.2         5.2         5.2
********************************************************************************


*******************************************************************************
Ephemeris / WWW_USER Sun Nov 24 08:38:52 2024 Pasadena, USA      / Horizons
*******************************************************************************
Target body name: Moon (301)                      {source: DE441}
Center body name: Solar System Barycenter (0)     {source: DE441}
Center-site name: BODY CENTER
*******************************************************************************
Start time      : A.D. 2024-Nov-11 00:00:00.0000 TDB
Stop  time      : A.D. 2024-Dec-11 00:00:00.0000 TDB
Step-size       : 1440 minutes
*******************************************************************************
Center geodetic : 0.0, 0.0, 0.0                   {E-lon(deg),Lat(deg),Alt(km)}
Center cylindric: 0.0, 0.0, 0.0                   {E-lon(deg),Dxy(km),Dz(km)}
Center radii    : (undefined)
Output units    : KM-S
Calendar mode   : Mixed Julian/Gregorian
Output type     : GEOMETRIC cartesian states
Output format   : 3 (position, velocity, LT, range, range-rate)
Reference frame : Ecliptic of J2000.0
*******************************************************************************
JDTDB
   X     Y     Z
   VX    VY    VZ
   LT    RG    RR
*******************************************************************************
$$SOE
2460649.500000000 = A.D. 2024-Dec-05 00:00:00.0000 TDB 
 X = 4.240444120601042E+07 Y = 1.399228007854177E+08 Z =-1.136567305452377E+04
 VX=-2.807676999764739E+01 VY= 9.087380959730009E+00 VZ= 3.830434724473308E-02
 LT= 4.876945140264266E+02 RG= 1.462071371130979E+08 RR= 5.536776063967194E-01
2460650.500000000 = A.D. 2024-Dec-06 00:00:00.0000 TDB 
 X = 3.996670420174242E+07 Y = 1.406946476577087E+08 Z =-7.266593631923199E+03
 VX=-2.835877849372108E+01 VY= 8.774576673384383E+00 VZ= 5.622557913283099E-02
 LT= 4.878746517223950E+02 RG= 1.462611410357507E+08 RR= 6.914252995806097E-01
2460651.500000000 = A.D. 2024-Dec-07 00:00:00.0000 TDB 
 X = 3.750301230222967E+07 Y = 1.414380407902193E+08 Z =-1.726945993453264E+03
 VX=-2.867651743409479E+01 VY= 8.426841225757087E+00 VZ= 7.147354003867479E-02
 LT= 4.880898244172687E+02 RG= 1.463256481868414E+08 RR= 7.956226739263975E-01
2460652.500000000 = A.D. 2024-Dec-08 00:00:00.0000 TDB 
 X = 3.501059735874809E+07 Y = 1.421494884767496E+08 Z = 4.977595194734633E+03
 VX=-2.902209394881274E+01 VY= 8.033420384879641E+00 VZ= 8.303033785212310E-02
 LT= 4.883293939654990E+02 RG= 1.463974693305673E+08 RR= 8.597564325848747E-01
2460653.500000000 = A.D. 2024-Dec-09 00:00:00.0000 TDB 
 X = 3.248750396860053E+07 Y = 1.428246364712206E+08 Z = 1.248890315945446E+04
 VX=-2.938460836296439E+01 VY= 7.585247623666672E+00 VZ= 9.001845899040228E-02
 LT= 4.885810539104635E+02 RG= 1.464729150840484E+08 RR= 8.788572122344565E-01
2460654.500000000 = A.D. 2024-Dec-10 00:00:00.0000 TDB 
 X = 2.993284045938592E+07 Y = 1.434584533725948E+08 Z = 2.038212657739967E+04
 VX=-2.975040178375771E+01 VY= 7.075881207552015E+00 VZ= 9.178608183144688E-02
 LT= 4.888313610691618E+02 RG= 1.465479552824095E+08 RR= 8.501163639112391E-01
2460655.500000000 = A.D. 2024-Dec-11 00:00:00.0000 TDB 
 X = 2.734699474968427E+07 Y = 1.440455017212438E+08 Z = 2.818925077827275E+04
 VX=-3.010365022258406E+01 VY= 6.502537756168476E+00 VZ= 8.800200961879368E-02
 LT= 4.890664561099579E+02 RG= 1.466184350025534E+08 RR= 7.735686830515117E-01
